[{"OBJECT_NAME":"ALOS (DAICHI)","OBJECT_ID":"2006-002A","EPOCH":"2026-03-19T20:24:42.663456","MEAN_MOTION":14.69840946,"ECCENTRICITY":7.14e-5,"INCLINATION":98.1237,"RA_OF_ASC_NODE":34.7562,"ARG_OF_PERICENTER":82.4376,"MEAN_ANOMALY":277.6911,"EPHEMERIS_TYPE":0,"CLASSIFICATION_TYPE":"U","NORAD_CAT_ID":28931,"ELEMENT_SET_NO":999,"REV_AT_EPOCH":7497,"BSTAR":0.00020643,"MEAN_MOTION_DOT":1.184e-5,"MEAN_MOTION_DDOT":0},{"OBJECT_NAME":"H-2A R/B","OBJECT_ID":"2006-002B","EPOCH":"2026-03-19T20:04:13.817856","MEAN_MOTION":15.16630183,"ECCENTRICITY":0.0052163,"INCLINATION":98.2428,"RA_OF_ASC_NODE":226.7352,"ARG_OF_PERICENTER":206.2198,"MEAN_ANOMALY":153.639,"EPHEMERIS_TYPE":0,"CLASSIFICATION_TYPE":"U","NORAD_CAT_ID":28932,"ELEMENT_SET_NO":999,"REV_AT_EPOCH":9597,"BSTAR":0.00044098,"MEAN_MOTION_DOT":8.85e-5,"MEAN_MOTION_DDOT":0},{"OBJECT_NAME":"RESURS-DK 1","OBJECT_ID":"2006-021A","EPOCH":"2026-03-19T18:49:34.289760","MEAN_MOTION":15.12812447,"ECCENTRICITY":8.56e-5,"INCLINATION":69.9337,"RA_OF_ASC_NODE":210.9089,"ARG_OF_PERICENTER":135.2424,"MEAN_ANOMALY":224.8811,"EPHEMERIS_TYPE":0,"CLASSIFICATION_TYPE":"U","NORAD_CAT_ID":29228,"ELEMENT_SET_NO":999,"REV_AT_EPOCH":8905,"BSTAR":0.00014998,"MEAN_MOTION_DOT":2.533e-5,"MEAN_MOTION_DDOT":0},{"OBJECT_NAME":"CZ-4B R/B","OBJECT_ID":"2006-046C","EPOCH":"2026-03-19T16:50:19.497984","MEAN_MOTION":15.16999798,"ECCENTRICITY":0.0031983,"INCLINATION":97.557,"RA_OF_ASC_NODE":123.5831,"ARG_OF_PERICENTER":230.9957,"MEAN_ANOMALY":128.8427,"EPHEMERIS_TYPE":0,"CLASSIFICATION_TYPE":"U","NORAD_CAT_ID":29507,"ELEMENT_SET_NO":999,"REV_AT_EPOCH":6156,"BSTAR":0.00017447,"MEAN_MOTION_DOT":3.421e-5,"MEAN_MOTION_DDOT":0},{"OBJECT_NAME":"CZ-2C R/B","OBJECT_ID":"2007-010B","EPOCH":"2026-03-19T20:53:50.478432","MEAN_MOTION":14.20249751,"ECCENTRICITY":0.0057845,"INCLINATION":98.3988,"RA_OF_ASC_NODE":191.6397,"ARG_OF_PERICENTER":264.4271,"MEAN_ANOMALY":95.0308,"EPHEMERIS_TYPE":0,"CLASSIFICATION_TYPE":"U","NORAD_CAT_ID":31114,"ELEMENT_SET_NO":999,"REV_AT_EPOCH":98116,"BSTAR":6.8354e-5,"MEAN_MOTION_DOT":1.07e-6,"MEAN_MOTION_DDOT":0},{"OBJECT_NAME":"COSMO-SKYMED 1","OBJECT_ID":"2007-023A","EPOCH":"2026-03-19T19:51:14.623776","MEAN_MOTION":14.96614074,"ECCENTRICITY":0.0001438,"INCLINATION":97.8881,"RA_OF_ASC_NODE":269.942,"ARG_OF_PERICENTER":87.6805,"MEAN_ANOMALY":272.4581,"EPHEMERIS_TYPE":0,"CLASSIFICATION_TYPE":"U","NORAD_CAT_ID":31598,"ELEMENT_SET_NO":999,"REV_AT_EPOCH":1642,"BSTAR":0.00022374,"MEAN_MOTION_DOT":2.489e-5,"MEAN_MOTION_DDOT":0},{"OBJECT_NAME":"COSMOS 2428","OBJECT_ID":"2007-029A","EPOCH":"2026-03-19T17:30:02.995776","MEAN_MOTION":14.12947467,"ECCENTRICITY":0.0009508,"INCLINATION":70.9441,"RA_OF_ASC_NODE":182.2723,"ARG_OF_PERICENTER":266.8413,"MEAN_ANOMALY":93.162,"EPHEMERIS_TYPE":0,"CLASSIFICATION_TYPE":"U","NORAD_CAT_ID":31792,"ELEMENT_SET_NO":999,"REV_AT_EPOCH":96551,"BSTAR":1.6178e-5,"MEAN_MOTION_DOT":-1.8e-7,"MEAN_MOTION_DDOT":0},{"OBJECT_NAME":"SL-16 R/B","OBJECT_ID":"2007-029B","EPOCH":"2026-03-19T16:25:38.167392","MEAN_MOTION":14.14838902,"ECCENTRICITY":0.0002336,"INCLINATION":70.9756,"RA_OF_ASC_NODE":151.3763,"ARG_OF_PERICENTER":276.4551,"MEAN_ANOMALY":198.6253,"EPHEMERIS_TYPE":0,"CLASSIFICATION_TYPE":"U","NORAD_CAT_ID":31793,"ELEMENT_SET_NO":999,"REV_AT_EPOCH":96678,"BSTAR":0.00020703,"MEAN_MOTION_DOT":3.52e-6,"MEAN_MOTION_DDOT":0},{"OBJECT_NAME":"KORONAS-FOTON","OBJECT_ID":"2009-003A","EPOCH":"2026-03-19T05:31:01.089408","MEAN_MOTION":15.4354581,"ECCENTRICITY":0.00117858,"INCLINATION":82.427,"RA_OF_ASC_NODE":265.9565,"ARG_OF_PERICENTER":118.5773,"MEAN_ANOMALY":241.6662,"EPHEMERIS_TYPE":0,"CLASSIFICATION_TYPE":"U","NORAD_CAT_ID":33504,"ELEMENT_SET_NO":999,"REV_AT_EPOCH":94721,"BSTAR":0.00021725514,"MEAN_MOTION_DOT":9.812e-5,"MEAN_MOTION_DDOT":0},{"OBJECT_NAME":"CZ-2C R/B","OBJECT_ID":"2011-030B","EPOCH":"2026-03-19T20:54:50.448672","MEAN_MOTION":14.81258787,"ECCENTRICITY":0.0051566,"INCLINATION":97.8563,"RA_OF_ASC_NODE":35.932,"ARG_OF_PERICENTER":318.6211,"MEAN_ANOMALY":57.6131,"EPHEMERIS_TYPE":0,"CLASSIFICATION_TYPE":"U","NORAD_CAT_ID":37731,"ELEMENT_SET_NO":999,"REV_AT_EPOCH":79160,"BSTAR":0.00018115,"MEAN_MOTION_DOT":1.389e-5,"MEAN_MOTION_DDOT":0},{"OBJECT_NAME":"H-2A R/B","OBJECT_ID":"2012-025E","EPOCH":"2026-03-19T20:00:26.335296","MEAN_MOTION":14.95235764,"ECCENTRICITY":0.0043155,"INCLINATION":98.4744,"RA_OF_ASC_NODE":46.6931,"ARG_OF_PERICENTER":279.9701,"MEAN_ANOMALY":79.6648,"EPHEMERIS_TYPE":0,"CLASSIFICATION_TYPE":"U","NORAD_CAT_ID":38341,"ELEMENT_SET_NO":999,"REV_AT_EPOCH":74973,"BSTAR":0.00025053,"MEAN_MOTION_DOT":2.736e-5,"MEAN_MOTION_DDOT":0},{"OBJECT_NAME":"SHIJIAN-16 (SJ-16)","OBJECT_ID":"2013-057A","EPOCH":"2026-03-19T19:39:03.263328","MEAN_MOTION":14.92387361,"ECCENTRICITY":0.0015266,"INCLINATION":74.974,"RA_OF_ASC_NODE":165.9144,"ARG_OF_PERICENTER":86.4878,"MEAN_ANOMALY":273.8056,"EPHEMERIS_TYPE":0,"CLASSIFICATION_TYPE":"U","NORAD_CAT_ID":39358,"ELEMENT_SET_NO":999,"REV_AT_EPOCH":67301,"BSTAR":0.0001083,"MEAN_MOTION_DOT":1.082e-5,"MEAN_MOTION_DDOT":0},{"OBJECT_NAME":"SL-4 R/B","OBJECT_ID":"2014-021B","EPOCH":"2026-03-19T19:42:38.148768","MEAN_MOTION":15.39497305,"ECCENTRICITY":0.0096678,"INCLINATION":51.6057,"RA_OF_ASC_NODE":287.8393,"ARG_OF_PERICENTER":139.8574,"MEAN_ANOMALY":220.9604,"EPHEMERIS_TYPE":0,"CLASSIFICATION_TYPE":"U","NORAD_CAT_ID":39679,"ELEMENT_SET_NO":999,"REV_AT_EPOCH":65783,"BSTAR":0.00025508,"MEAN_MOTION_DOT":0.00011538,"MEAN_MOTION_DDOT":0},{"OBJECT_NAME":"ALOS-2","OBJECT_ID":"2014-029A","EPOCH":"2026-03-19T20:43:16.866624","MEAN_MOTION":14.79412057,"ECCENTRICITY":0.0001797,"INCLINATION":97.9195,"RA_OF_ASC_NODE":177.3141,"ARG_OF_PERICENTER":113.846,"MEAN_ANOMALY":246.294,"EPHEMERIS_TYPE":0,"CLASSIFICATION_TYPE":"U","NORAD_CAT_ID":39766,"ELEMENT_SET_NO":999,"REV_AT_EPOCH":63837,"BSTAR":0.00019359,"MEAN_MOTION_DOT":1.393e-5,"MEAN_MOTION_DDOT":0},{"OBJECT_NAME":"YAOGAN-29","OBJECT_ID":"2015-069A","EPOCH":"2026-03-19T20:20:48.814944","MEAN_MOTION":14.83006875,"ECCENTRICITY":0.0001224,"INCLINATION":98.0128,"RA_OF_ASC_NODE":107.3037,"ARG_OF_PERICENTER":23.1881,"MEAN_ANOMALY":336.9387,"EPHEMERIS_TYPE":0,"CLASSIFICATION_TYPE":"U","NORAD_CAT_ID":41038,"ELEMENT_SET_NO":999,"REV_AT_EPOCH":55738,"BSTAR":6.3386e-5,"MEAN_MOTION_DOT":4.61e-6,"MEAN_MOTION_DDOT":0},{"OBJECT_NAME":"ASTRO-H (HITOMI)","OBJECT_ID":"2016-012A","EPOCH":"2026-03-19T19:31:42.956832","MEAN_MOTION":15.10068181,"ECCENTRICITY":0.0009618,"INCLINATION":30.9993,"RA_OF_ASC_NODE":291.2126,"ARG_OF_PERICENTER":72.9706,"MEAN_ANOMALY":287.1986,"EPHEMERIS_TYPE":0,"CLASSIFICATION_TYPE":"U","NORAD_CAT_ID":41337,"ELEMENT_SET_NO":999,"REV_AT_EPOCH":55376,"BSTAR":0.00015439,"MEAN_MOTION_DOT":2.672e-5,"MEAN_MOTION_DDOT":0},{"OBJECT_NAME":"HXMT (HUIYAN)","OBJECT_ID":"2017-034A","EPOCH":"2026-03-19T20:21:09.648576","MEAN_MOTION":15.17594679,"ECCENTRICITY":0.0032981,"INCLINATION":43.015,"RA_OF_ASC_NODE":320.1929,"ARG_OF_PERICENTER":297.7654,"MEAN_ANOMALY":61.9851,"EPHEMERIS_TYPE":0,"CLASSIFICATION_TYPE":"U","NORAD_CAT_ID":42758,"ELEMENT_SET_NO":999,"REV_AT_EPOCH":48408,"BSTAR":0.00022814,"MEAN_MOTION_DOT":4.492e-5,"MEAN_MOTION_DDOT":0}]
